NORAD_CAT_ID,OBJECT_NAME,OBJECT_TYPE,EPOCH,MEAN_MOTION,ECCENTRICITY,INCLINATION,RA_OF_ASC_NODE,ARG_OF_PERICENTER,MEAN_ANOMALY,BSTAR,MEAN_MOTION_DOT,MEAN_MOTION_DDOT,TLE_LINE0,TLE_LINE1,TLE_LINE2,SEMIMAJOR_AXIS,PERIOD,APOGEE,PERIGEE,DECAYED
52478.0,STARLINK-3825,PAYLOAD,2023-01-03 01:06:14,15.0882513,0.0001771999999999,53.2126,233.9508,55.2763,304.8396,0.00014917,2.086e-05,0.0,0 STARLINK-3825,1 52478U 22049AD  23003.04599812  .00002086  00000-0  14917-3 0  9990,2 52478  53.2126 233.9508 0001772  55.2763 304.8396 15.08825130 37042,6917.926,95.438,541.0169999999998,538.565,0.0
52478.0,STARLINK-3825,PAYLOAD,2023-01-04 07:18:33,15.0885281,0.0001796,53.2136,228.3001,54.3273,305.7886,0.0005723,8.835e-05,0.0,0 STARLINK-3825,1 52478U 22049AD  23004.30455688  .00008835  00000-0  57230-3 0  9995,2 52478  53.2136 228.3001 0001796  54.3273 305.7886 15.08852810 37231,6917.840999999999,95.437,540.9490000000002,538.464,0.0
52478.0,STARLINK-3825,PAYLOAD,2023-01-04 21:37:01,15.08862377,0.0001862,53.2137,225.6238,57.0208,303.0963,0.0004669999999999,7.157e-05,0.0,0 STARLINK-3825,1 52478U 22049AD  23004.90070879  .00007157  00000-0  46700-3 0  9992,2 52478  53.2137 225.6238 0001862  57.0208 303.0963 15.08862377 38402,6917.812,95.436,540.965,538.389,0.0
52478.0,STARLINK-3825,PAYLOAD,2023-01-05 13:30:51,15.0885883,0.0001759,53.2133,222.6501,52.6153,307.4999,0.00018816,2.709e-05,0.0,0 STARLINK-3825,1 52478U 22049AD  23005.56310084  .00002709  00000-0  18816-3 0  9995,2 52478  53.2133 222.6501 0001759  52.6153 307.4999 15.08858830 37420,6917.823,95.436,540.905,538.471,0.0
52478.0,STARLINK-3825,PAYLOAD,2023-01-05 15:06:14,15.08860307,0.0001615,53.213,222.3528,57.0345,303.0803,0.00020025,2.902e-05,0.0,0 STARLINK-3825,1 52478U 22049AD  23005.62933885  .00002902  00000-0  20025-3 0  9992,2 52478  53.2130 222.3528 0001615  57.0345 303.0803 15.08860307 38515,6917.818,95.436,540.8009999999998,538.566,0.0
52478.0,STARLINK-3825,PAYLOAD,2023-01-06 07:00:06,15.08840966,0.0001834,53.2126,219.3786,53.6005,306.5156,-0.00015501,-2.754e-05,0.0,0 STARLINK-3825,1 52478U 22049AD  23006.29174374 -.00002754  00000-0 -15501-3 0  9996,2 52478  53.2126 219.3786 0001834  53.6005 306.5156 15.08840966 37539,6917.877,95.437,541.011,538.474,0.0
52478.0,STARLINK-3825,PAYLOAD,2023-01-06 14:57:02,15.08839919,0.0001625,53.2122,217.8922,56.2751,303.8396,-0.00017369,-3.051e-05,0.0,0 STARLINK-3825,1 52478U 22049AD  23006.62294293 -.00003051  00000-0 -17369-3 0  9991,2 52478  53.2122 217.8922 0001625  56.2751 303.8396 15.08839919 38662,6917.880999999999,95.438,540.87,538.621,0.0
52478.0,STARLINK-3825,PAYLOAD,2023-01-06 22:53:57,15.08840638,0.0001744,53.2121,216.405,50.4881,309.6265,-6.9322e-05,-1.391e-05,0.0,0 STARLINK-3825,1 52478U 22049AD  23006.95414221 -.00001391  00000-0 -69322-4 0  9994,2 52478  53.2121 216.4050 0001744  50.4881 309.6265 15.08840638 38715,6917.8780000000015,95.438,540.95,538.5369999999998,0.0
52478.0,STARLINK-3825,PAYLOAD,2023-01-07 14:47:49,15.08840016,0.0001927,53.214,213.4308,57.9896,302.1283,-7.0559e-05,-1.411e-05,0.0,0 STARLINK-3825,1 52478U 22049AD  23007.61654928 -.00001411  00000-0 -70559-4 0  9995,2 52478  53.2140 213.4308 0001927  57.9896 302.1283 15.08840016 37739,6917.88,95.438,541.078,538.4119999999998,0.0
52478.0,STARLINK-3825,PAYLOAD,2023-01-08 13:03:14,15.0882982,0.0001846,53.2145,209.268,55.1871,304.9294,9.5651e-05,1.234e-05,0.0,0 STARLINK-3825,1 52478U 22049AD  23008.54391550  .00001234  00000-0  95651-4 0  9998,2 52478  53.2145 209.2680 0001846  55.1871 304.9294 15.08829820 37870,6917.911999999998,95.438,541.054,538.499,0.0
52478.0,STARLINK-3825,PAYLOAD,2023-01-08 19:24:46,15.0883511,0.000182,53.2143,208.0786,54.5786,305.5376,9.1931e-05,1.175e-05,0.0,0 STARLINK-3825,1 52478U 22049AD  23008.80887316  .00001175  00000-0  91931-4 0  9998,2 52478  53.2143 208.0786 0001820  54.5786 305.5376 15.08835110 38993,6917.895,95.438,541.019,538.501,0.0
52478.0,STARLINK-3825,PAYLOAD,2023-01-09 06:32:28,15.08841209,0.0001866,53.2143,205.9969,55.3235,304.7933,8.0338e-05,9.91e-06,0.0,0 STARLINK-3825,1 52478U 22049AD  23009.27255069  .00000991  00000-0  80338-4 0  9998,2 52478  53.2143 205.9969 0001866  55.3235 304.7933 15.08841209 37984,6917.877,95.437,541.033,538.451,0.0
52478.0,STARLINK-3825,PAYLOAD,2023-01-10 12:44:47,15.08845138,0.0001944,53.2124,200.3455,59.8335,300.2849,0.00011949,1.614e-05,0.0,0 STARLINK-3825,1 52478U 22049AD  23010.53110768  .00001614  00000-0  11949-3 0  9999,2 52478  53.2124 200.3455 0001944  59.8335 300.2849 15.08845138 38173,6917.865,95.437,541.075,538.385,0.0
52478.0,STARLINK-3825,PAYLOAD,2023-01-10 19:06:20,15.08840563,0.0001954,53.2133,199.1566,58.0852,302.033,7.7587e-05,9.47e-06,0.0,0 STARLINK-3825,1 52478U 22049AD  23010.79607128  .00000947  00000-0  77587-4 0  9997,2 52478  53.2133 199.1566 0001954  58.0852 302.0330 15.08840563 39293,6917.879,95.438,541.095,538.3919999999998,0.0
52478.0,STARLINK-3825,PAYLOAD,2023-01-11 12:35:34,15.0884928,0.000206,53.2146,195.8849,61.1517,298.9682,5.9532e-05,6.6e-06,0.0,0 STARLINK-3825,1 52478U 22049AD  23011.52470462  .00000660  00000-0  59532-4 0  9990,2 52478  53.2146 195.8849 0002060  61.1517 298.9682 15.08849280 39407,6917.852,95.437,541.1419999999998,538.2919999999998,0.0
52478.0,STARLINK-3825,PAYLOAD,2023-01-11 18:57:06,15.08853587,0.000178,53.2145,194.6964,51.0555,309.0595,0.00010143,1.327e-05,0.0,0 STARLINK-3825,1 52478U 22049AD  23011.78965853  .00001327  00000-0  10143-3 0  9996,2 52478  53.2145 194.6964 0001780  51.0555 309.0595 15.08853587 38365,6917.839,95.437,540.935,538.472,0.0
52478.0,STARLINK-3825,PAYLOAD,2023-01-12 04:29:24,15.08875869,0.0001332,53.2129,192.9106,21.2019,338.9028,-0.00026903,-4.571e-05,0.0,0 STARLINK-3825,1 52478U 22049AD  23012.18708938 -.00004571  00000-0 -26903-3 0  9997,2 52478  53.2129 192.9106 0001332  21.2019 338.9028 15.08875869 38429,6917.771,95.435,540.557,538.714,0.0
52478.0,STARLINK-3825,PAYLOAD,2023-01-12 18:47:55,15.08832398,0.0002399,53.215,190.2335,64.0137,296.1102,-7.771e-06,-4.12e-06,0.0,0 STARLINK-3825,1 52478U 22049AD  23012.78327738 -.00000412  00000-0 -77710-5 0  9992,2 52478  53.2150 190.2335 0002399  64.0137 296.1102 15.08832398 38516,6917.904,95.438,541.428,538.109,0.0
52478.0,STARLINK-3825,PAYLOAD,2023-01-13 04:20:14,15.08827374,0.0002201999999999,53.2144,188.4499,60.0509,300.0702,-6.3289e-05,-1.295e-05,0.0,0 STARLINK-3825,1 52478U 22049AD  23013.18072481 -.00001295  00000-0 -63289-4 0  9994,2 52478  53.2144 188.4499 0002202  60.0509 300.0702 15.08827374 38576,6917.919,95.438,541.307,538.261,0.0
52478.0,STARLINK-3825,PAYLOAD,2023-01-13 18:38:41,15.08850157,0.0002073,53.2132,185.7732,61.1181,299.0019,-7.0435e-05,-1.409e-05,0.0,0 STARLINK-3825,1 52478U 22049AD  23013.77687113 -.00001409  00000-0 -70435-4 0  9991,2 52478  53.2132 185.7732 0002073  61.1181 299.0019 15.08850157 38660,6917.849,95.437,541.148,538.28,0.0
52478.0,STARLINK-3825,PAYLOAD,2023-01-13 20:14:05,15.0884234,0.0001814,53.2136,185.4769,57.7614,302.3554,2.1934e-05,6.1e-07,0.0,0 STARLINK-3825,1 52478U 22049AD  23013.84311453  .00000061  00000-0  21934-4 0  9991,2 52478  53.2136 185.4769 0001814  57.7614 302.3554 15.08842340 39753,6917.8730000000005,95.437,540.993,538.4830000000001,0.0
52478.0,STARLINK-3825,PAYLOAD,2023-01-14 12:07:57,15.08830204,0.0001824,53.212,182.5031,62.3024,297.8153,0.00017484,2.495e-05,0.0,0 STARLINK-3825,1 52478U 22049AD  23014.50552365  .00002495  00000-0  17484-3 0  9991,2 52478  53.2120 182.5031 0001824  62.3024 297.8153 15.08830204 38774,6917.91,95.438,541.0369999999999,538.514,0.0
52478.0,STARLINK-3825,PAYLOAD,2023-01-15 10:23:21,15.08835478,0.0001865999999999,53.2129,178.3395,65.7364,294.3823,7.7822e-05,9.5e-06,0.0,0 STARLINK-3825,1 52478U 22049AD  23015.43288595  .00000950  00000-0  77822-4 0  9992,2 52478  53.2129 178.3395 0001866  65.7364 294.3823 15.08835478 39998,6917.894,95.438,541.05,538.4680000000001,0.0
52478.0,STARLINK-3825,PAYLOAD,2023-01-15 19:55:39,15.08843524,0.0001764999999999,53.2126,176.5556,66.5482,293.5696,0.00022426,3.283e-05,0.0,0 STARLINK-3825,1 52478U 22049AD  23015.83032222  .00003283  00000-0  22426-3 0  9991,2 52478  53.2126 176.5556 0001765  66.5482 293.5696 15.08843524 38979,6917.87,95.437,540.956,538.514,0.0
52478.0,STARLINK-3825,PAYLOAD,2023-01-16 10:14:08,15.08837879,0.0001494,53.2122,173.87900000000002,71.3717,288.7438,0.00013378,1.842e-05,0.0,0 STARLINK-3825,1 52478U 22049AD  23016.42648590  .00001842  00000-0  13378-3 0  9993,2 52478  53.2122 173.8790 0001494  71.3717 288.7438 15.08837879 39066,6917.887,95.438,540.785,538.7180000000001,0.0
52478.0,STARLINK-3825,PAYLOAD,2023-01-16 16:35:40,15.08840878,0.0001551,53.2122,172.6898,70.9876,289.1284,0.00015773,2.223e-05,0.0,0 STARLINK-3825,1 52478U 22049AD  23016.69144479  .00002223  00000-0  15773-3 0  9994,2 52478  53.2122 172.6898 0001551  70.9876 289.1284 15.08840878 40189,6917.878000000001,95.437,540.816,538.67,0.0
52478.0,STARLINK-3825,PAYLOAD,2023-01-17 10:04:55,15.08835577,0.0001776999999999,53.2131,169.4203,70.9111,289.2074,5.2479e-05,5.47e-06,0.0,0 STARLINK-3825,1 52478U 22049AD  23017.42008953  .00000547  00000-0  52479-4 0  9994,2 52478  53.2131 169.4203 0001777  70.9111 289.2074 15.08835577 40295,6917.894,95.438,540.988,538.53,0.0
52478.0,STARLINK-3825,PAYLOAD,2023-01-17 16:26:28,15.08841057,0.000174,53.2128,168.2305,75.3787,284.7398,0.00013384,1.843e-05,0.0,0 STARLINK-3825,1 52478U 22049AD  23017.68504712  .00001843  00000-0  13384-3 0  9997,2 52478  53.2128 168.2305 0001740  75.3787 284.7398 15.08841057 39252,6917.877,95.437,540.946,538.538,0.0
52478.0,STARLINK-3825,PAYLOAD,2023-01-17 19:37:14,15.08843325,0.000181,53.2134,167.6343,80.2732,279.8464,9.9321e-05,1.293e-05,0.0,0 STARLINK-3825,1 52478U 22049AD  23017.81752620  .00001293  00000-0  99321-4 0  9990,2 52478  53.2134 167.6343 0001810  80.2732 279.8464 15.08843325 40359,6917.87,95.437,540.987,538.4830000000001,0.0
